STARLINK-35961          
1 66530U 25265Q   26067.98262720  .00036716  00000+0  13364-2 0  9998
2 66530  43.0040 282.0756 0001936 268.8997  91.1633 15.27598115 17006
KUIPER-00204            
1 67145U 25301N   26068.39760395  .00020516  00000+0  79568-3 0  9999
2 67145  51.8870  71.6415 0003071 354.8934   5.2016 15.26088400 13737
